[
{
    "INTLDES": "65089C",
    "OBJECT_NAME": "DELTA 1 DEB",
    "OBJECT_TYPE": "DEBRIS",
    "TLE_LINE1": "1 02700U 65089C   15133.75441238 -.00000045  00000-0  16459-3 0  9992",
    "TLE_LINE2": "2 02700 059.5952 197.6644 0722044 037.8541 056.8859 12.08861536221961"
},
{
    "INTLDES": "65048E",
    "OBJECT_NAME": "THOR ABLESTAR DEB",
    "OBJECT_TYPE": "DEBRIS",
    "TLE_LINE1": "1 02701U 65048E   15135.05511229  .00000427  00000-0  53553-3 0  9990",
    "TLE_LINE2": "2 02701 089.9671 319.2619 0061711 335.1324 150.5353 13.62047312470080"
},
{
    "INTLDES": "66076D",
    "OBJECT_NAME": "SCOUT A DEB",
    "OBJECT_TYPE": "DEBRIS",
    "TLE_LINE1": "1 02702U 66076D   15135.13000501  .00000241  00000-0  43715-3 0  9991",
    "TLE_LINE2": "2 02702 088.5690 107.2295 0089295 147.0214 344.9016 13.35691031355863"
},
{
    "INTLDES": "67006C",
    "OBJECT_NAME": "DELTA 1 DEB",
    "OBJECT_TYPE": "DEBRIS",
    "TLE_LINE1": "1 02706U 67006C   15135.07987032  .00000003  00000-0  29375-3 0  9997",
    "TLE_LINE2": "2 02706 102.2199 330.8236 0035166 281.1355 203.2926 12.60794950222432"
},
{
    "INTLDES": "67006D",
    "OBJECT_NAME": "DELTA 1 DEB",
    "OBJECT_TYPE": "DEBRIS",
    "TLE_LINE1": "1 02707U 67006D   15133.13681039 -.00000030  00000-0  81907-4 0  9992",
    "TLE_LINE2": "2 02707 101.8174 211.0708 0148780 247.6271 139.4979 12.79242213254462"
},
{
    "INTLDES": "67026A",
    "OBJECT_NAME": "INTELSAT 2-F3",
    "OBJECT_TYPE": "PAYLOAD",
    "TLE_LINE1": "1 02717U 67026A   15131.73890032 -.00000017  00000-0  00000+0 0  9999",
    "TLE_LINE2": "2 02717 005.0955 307.5107 0021106 259.9627 289.8699 01.00244699 79581"
},
{
    "INTLDES": "67010B",
    "OBJECT_NAME": "THOR BURNER 2 R/B",
    "OBJECT_TYPE": "ROCKET BODY",
    "TLE_LINE1": "1 02741U 67010B   15134.84898144  .00000388  00000-0  17344-3 0  9999",
    "TLE_LINE2": "2 02741 098.9880 271.8689 0054539 134.5656 225.9996 14.27700834507454"
},
{
    "INTLDES": "67034A",
    "OBJECT_NAME": "OPS 0100 (TRANSIT 15)",
    "OBJECT_TYPE": "PAYLOAD",
    "TLE_LINE1": "1 02754U 67034A   15135.05349574  .00000170  00000-0  22796-3 0  9997",
    "TLE_LINE2": "2 02754 090.2527 303.6159 0021879 110.2738 005.3962 13.56627034377358"
},
{
    "INTLDES": "67034B",
    "OBJECT_NAME": "SCOUT A R/B",
    "OBJECT_TYPE": "ROCKET BODY",
    "TLE_LINE1": "1 02755U 67034B   15134.11259801 -.00000033  00000-0 -61446-4 0  9993",
    "TLE_LINE2": "2 02755 090.2407 321.5478 0024542 253.4367 245.7037 13.53575004374353"
},
{
    "INTLDES": "67036A",
    "OBJECT_NAME": "ESSA 5",
    "OBJECT_TYPE": "PAYLOAD",
    "TLE_LINE1": "1 02757U 67036A   15134.39584001 -.00000019  00000-0  15098-3 0  9994",
    "TLE_LINE2": "2 02757 101.9900 141.8343 0042847 320.6623 146.2218 12.68491703225660"
},
{
    "INTLDES": "67036B",
    "OBJECT_NAME": "DELTA 1 R/B",
    "OBJECT_TYPE": "ROCKET BODY",
    "TLE_LINE1": "1 02758U 67036B   15135.83684306 -.00000021  00000-0  13505-3 0  9998",
    "TLE_LINE2": "2 02758 101.8654 211.5199 0040712 024.4272 335.8727 12.68787633226019"
},
{
    "INTLDES": "67040A",
    "OBJECT_NAME": "OPS 6638 (VELA 7)",
    "OBJECT_TYPE": "PAYLOAD",
    "TLE_LINE1": "1 02765U 67040A   15132.81226242 -.00000986  00000-0  00000+0 0  9999",
    "TLE_LINE2": "2 02765 005.3291 341.6814 4696562 200.0764 001.4523 00.21510225 37694"
},
{
    "INTLDES": "67040F",
    "OBJECT_NAME": "TITAN 3C TRANSTAGE R/B",
    "OBJECT_TYPE": "ROCKET BODY",
    "TLE_LINE1": "1 02770U 67040F   15137.03610582 -.00000403  00000-0  00000+0 0  9992",
    "TLE_LINE2": "2 02770 033.4032 064.6083 8227535 071.4191 359.6121 00.50947781 83868"
},
{
    "INTLDES": "66087D",
    "OBJECT_NAME": "DELTA 1 DEB",
    "OBJECT_TYPE": "DEBRIS",
    "TLE_LINE1": "1 02775U 66087D   15134.11514661 -.00000030  00000-0  72380-4 0  9995",
    "TLE_LINE2": "2 02775 101.4381 192.7730 0125034 133.7508 255.4392 12.71582936255738"
},
{
    "INTLDES": "67034C",
    "OBJECT_NAME": "SCOUT A DEB",
    "OBJECT_TYPE": "DEBRIS",
    "TLE_LINE1": "1 02777U 67034C   15135.72156798  .00000762  00000-0  46418-3 0  9994",
    "TLE_LINE2": "2 02777 090.2472 141.8779 0126177 311.1570 047.8777 14.01687907442023"
},
{
    "INTLDES": "67034D",
    "OBJECT_NAME": "SCOUT A DEB",
    "OBJECT_TYPE": "DEBRIS",
    "TLE_LINE1": "1 02778U 67034D   15135.22186426  .00000384  00000-0  72463-3 0  9990",
    "TLE_LINE2": "2 02778 089.8031 117.7736 0122842 227.1968 265.2070 13.34026632333361"
},
{
    "INTLDES": "65082KR",
    "OBJECT_NAME": "TITAN 3C TRANSTAGE DEB",
    "OBJECT_TYPE": "DEBRIS",
    "TLE_LINE1": "1 02789U 65082KR  15134.75360164  .00009231  00000-0  17068-2 0  9992",
    "TLE_LINE2": "2 02789 032.2870 326.6760 0108153 053.7304 307.3281 14.60701691503737"
},
{
    "INTLDES": "63014AQ",
    "OBJECT_NAME": "WESTFORD NEEDLES",
    "OBJECT_TYPE": "DEBRIS",
    "TLE_LINE1": "1 02796U 63014AQ  15134.94148514  .00000112  00000-0  49079-1 0  9992",
    "TLE_LINE2": "2 02796 087.3305 129.5525 0186814 194.9568 164.5711 08.67362254573813"
},
{
    "INTLDES": "65082KX",
    "OBJECT_NAME": "TITAN 3C TRANSTAGE DEB",
    "OBJECT_TYPE": "DEBRIS",
    "TLE_LINE1": "1 02799U 65082KX  15135.21037234  .00002032  00000-0  35021-3 0  9996",
    "TLE_LINE2": "2 02799 032.0542 077.1590 0037759 000.5031 136.8081 14.66412825560337"
},
{
    "INTLDES": "66070D",
    "OBJECT_NAME": "SCOUT B DEB",
    "OBJECT_TYPE": "DEBRIS",
    "TLE_LINE1": "1 02800U 66070D   15135.63595872  .00005254  00000-0  76564-3 0  9996",
    "TLE_LINE2": "2 02800 081.4112 240.7482 1550194 336.1009 129.7771 12.06763017 91718"
},
{
    "INTLDES": "67045A",
    "OBJECT_NAME": "COSMOS 158",
    "OBJECT_TYPE": "PAYLOAD",
    "TLE_LINE1": "1 02801U 67045A   15135.84438181  .00000072  00000-0  32602-4 0  9991",
    "TLE_LINE2": "2 02801 074.0392 307.0897 0056288 067.5218 293.1882 14.36535323515290"
},
{
    "INTLDES": "67045B",
    "OBJECT_NAME": "SL-8 R/B",
    "OBJECT_TYPE": "ROCKET BODY",
    "TLE_LINE1": "1 02802U 67045B   15134.54943338  .00000644  00000-0  19345-3 0  9996",
    "TLE_LINE2": "2 02802 074.0103 149.9175 0066175 027.1005 333.3580 14.43444775518647"
},
{
    "INTLDES": "67048A",
    "OBJECT_NAME": "OPS 7218 (TRANSIT 16)",
    "OBJECT_TYPE": "PAYLOAD",
    "TLE_LINE1": "1 02807U 67048A   15134.82091589  .00000152  00000-0  22275-3 0  9997",
    "TLE_LINE2": "2 02807 089.6482 132.5970 0021954 124.0473 353.8559 13.50063068361690"
},
{
    "INTLDES": "67048B",
    "OBJECT_NAME": "SCOUT A R/B",
    "OBJECT_TYPE": "ROCKET BODY",
    "TLE_LINE1": "1 02811U 67048B   15134.76648297  .00000118  00000-0  17204-3 0  9997",
    "TLE_LINE2": "2 02811 089.6508 134.9794 0020127 158.9573 326.4310 13.48889528360775"
},
{
    "INTLDES": "67053B",
    "OBJECT_NAME": "THOR AGENA D R/B",
    "OBJECT_TYPE": "ROCKET BODY",
    "TLE_LINE1": "1 02825U 67053B   15135.45249104  .00000124  00000-0  12682-3 0  9991",
    "TLE_LINE2": "2 02825 069.9700 122.8768 0005901 014.1228 152.9829 13.97003038526729"
},
{
    "INTLDES": "67053A",
    "OBJECT_NAME": "OPS 5712 (P/L 160)",
    "OBJECT_TYPE": "PAYLOAD",
    "TLE_LINE1": "1 02826U 67053A   15135.23442246  .00004143  00000-0  11739-2 0  9996",
    "TLE_LINE2": "2 02826 069.9315 224.5878 0004789 006.8354 353.2842 14.46169604478156"
},
{
    "INTLDES": "67053C",
    "OBJECT_NAME": "GGSE 4",
    "OBJECT_TYPE": "PAYLOAD",
    "TLE_LINE1": "1 02828U 67053C   15135.62334815  .00000140  00000-0  13765-3 0  9998",
    "TLE_LINE2": "2 02828 069.9698 116.5725 0006587 015.3042 099.9122 13.97287717442764"
},
{
    "INTLDES": "67053D",
    "OBJECT_NAME": "GGSE 5",
    "OBJECT_TYPE": "PAYLOAD",
    "TLE_LINE1": "1 02834U 67053D   15134.58248227  .00000057  00000-0  80968-4 0  9997",
    "TLE_LINE2": "2 02834 069.9711 164.0985 0005209 046.6799 081.4203 13.95722223441331"
},
{
    "INTLDES": "67053E",
    "OBJECT_NAME": "TIMATION 1",
    "OBJECT_TYPE": "PAYLOAD",
    "TLE_LINE1": "1 02847U 67053E   15135.48483159  .00000299  00000-0  23339-3 0  9992",
    "TLE_LINE2": "2 02847 069.9656 327.7299 0007869 310.2003 049.8416 14.01473800446455"
},
{
    "INTLDES": "67065A",
    "OBJECT_NAME": "SECOR 9 (EGRS 9)",
    "OBJECT_TYPE": "PAYLOAD",
    "TLE_LINE1": "1 02861U 67065A   15131.87521933  .00000001  00000-0 -55326-3 0  9996",
    "TLE_LINE2": "2 02861 090.1708 301.8109 0072305 348.3078 011.6079 08.36652181462248"
},
{
    "INTLDES": "67066A",
    "OBJECT_NAME": "OPS 9331 (IDSCS 16)",
    "OBJECT_TYPE": "PAYLOAD",
    "TLE_LINE1": "1 02862U 67066A   15132.39303878 -.00000121  00000-0  00000+0 0  9990",
    "TLE_LINE2": "2 02862 006.1644 302.6125 0065500 315.8983 340.3341 01.09955719 92705"
},
{
    "INTLDES": "67066B",
    "OBJECT_NAME": "OPS 9332 (IDSCS 17)",
    "OBJECT_TYPE": "PAYLOAD",
    "TLE_LINE1": "1 02863U 67066B   15133.41200008 -.00000093  00000-0  00000+0 0  9994",
    "TLE_LINE2": "2 02863 006.1527 302.8222 0063810 313.1676 318.3136 01.09896783 80314"
},
{
    "INTLDES": "67066C",
    "OBJECT_NAME": "OPS 9333 (IDSCS 18)",
    "OBJECT_TYPE": "PAYLOAD",
    "TLE_LINE1": "1 02864U 67066C   15135.70503244 -.00000104  00000-0  00000+0 0  9990",
    "TLE_LINE2": "2 02864 006.2415 303.0304 0059626 307.2093 359.9240 01.09785825 87153"
},
{
    "INTLDES": "67066D",
    "OBJECT_NAME": "OPS 9334 (IDSCS 19)",
    "OBJECT_TYPE": "PAYLOAD",
    "TLE_LINE1": "1 02865U 67066D   15132.28830747 -.00000127  00000-0  00000+0 0  9997",
    "TLE_LINE2": "2 02865 006.2903 303.5543 0055154 297.1482 010.9706 01.09624673 85935"
},
{
    "INTLDES": "67066E",
    "OBJECT_NAME": "LES 5",
    "OBJECT_TYPE": "PAYLOAD",
    "TLE_LINE1": "1 02866U 67066E   15132.27129856 -.00000084  00000-0  00000+0 0  9991",
    "TLE_LINE2": "2 02866 006.3889 304.0886 0050491 284.0067 073.6941 01.09419261 86662"
},
{
    "INTLDES": "67066F",
    "OBJECT_NAME": "DODGE 1",
    "OBJECT_TYPE": "PAYLOAD",
    "TLE_LINE1": "1 02867U 67066F   15135.59576720 -.00000140  00000-0  00000+0 0  9999",
    "TLE_LINE2": "2 02867 006.5189 304.6766 0050493 264.1891 333.7559 01.09168595 89273"
}
]
